[
  {
    "COMMENT": "GENERATED VIA SPACETRACK.ORG API",
    "ORIGINATOR": "18 SPCS",
    "NORAD_CAT_ID": "27386",
    "OBJECT_NAME": "ENVISAT",
    "OBJECT_TYPE": "PAYLOAD",
    "CLASSIFICATION_TYPE": "U",
    "INTLDES": "02009A",
    "EPOCH": "2023-08-11 12:38:35",
    "EPOCH_MICROSECONDS": "613312",
    "MEAN_MOTION": "14.38390484",
    "ECCENTRICITY": "0.0001422",
    "INCLINATION": "98.2348",
    "RA_OF_ASC_NODE": "191.2691",
    "ARG_OF_PERICENTER": "85.0183",
    "MEAN_ANOMALY": "25.7868",
    "EPHEMERIS_TYPE": "0",
    "ELEMENT_SET_NO": "999",
    "REV_AT_EPOCH": "12391",
    "BSTAR": "0.000067057",
    "MEAN_MOTION_DOT": "0.00000163",
    "MEAN_MOTION_DDOT": "0",
    "FILE": "3977566",
    "TLE_LINE0": "0 ENVISAT",
    "TLE_LINE1": "1 27386U 02009A   23223.52680108  .00000163  00000-0  67057-4 0  9998",
    "TLE_LINE2": "2 27386  98.2348 191.2691 0001422  85.0183  25.7868 14.38390484123911",
    "OBJECT_ID": "2002-009A",
    "OBJECT_NUMBER": "27386",
    "SEMIMAJOR_AXIS": "7141.958",
    "PERIOD": "100.112",
    "APOGEE": "764.839",
    "PERIGEE": "762.808",
    "DECAYED": "0"
  },
  {
    "COMMENT": "GENERATED VIA SPACETRACK.ORG API",
    "ORIGINATOR": "18 SPCS",
    "NORAD_CAT_ID": "27386",
    "OBJECT_NAME": "ENVISAT",
    "OBJECT_TYPE": "PAYLOAD",
    "CLASSIFICATION_TYPE": "U",
    "INTLDES": "02009A",
    "EPOCH": "2023-08-11 19:05:31",
    "EPOCH_MICROSECONDS": "727904",
    "MEAN_MOTION": "14.3839059",
    "ECCENTRICITY": "0.0001415",
    "INCLINATION": "98.2349",
    "RA_OF_ASC_NODE": "191.5269",
    "ARG_OF_PERICENTER": "84.881",
    "MEAN_ANOMALY": "336.5256",
    "EPHEMERIS_TYPE": "0",
    "ELEMENT_SET_NO": "999",
    "REV_AT_EPOCH": "12395",
    "BSTAR": "0.000066772",
    "MEAN_MOTION_DOT": "0.00000162",
    "MEAN_MOTION_DDOT": "0",
    "FILE": "3977919",
    "TLE_LINE0": "0 ENVISAT",
    "TLE_LINE1": "1 27386U 02009A   23223.79550611  .00000162  00000-0  66772-4 0  9994",
    "TLE_LINE2": "2 27386  98.2349 191.5269 0001415  84.8810 336.5256 14.38390590123958",
    "OBJECT_ID": "2002-009A",
    "OBJECT_NUMBER": "27386",
    "SEMIMAJOR_AXIS": "7141.958",
    "PERIOD": "100.112",
    "APOGEE": "764.833",
    "PERIGEE": "762.812",
    "DECAYED": "0"
  },
  {
    "COMMENT": "GENERATED VIA SPACETRACK.ORG API",
    "ORIGINATOR": "18 SPCS",
    "NORAD_CAT_ID": "27386",
    "OBJECT_NAME": "ENVISAT",
    "OBJECT_TYPE": "PAYLOAD",
    "CLASSIFICATION_TYPE": "U",
    "INTLDES": "02009A",
    "EPOCH": "2023-08-11 22:26:38",
    "EPOCH_MICROSECONDS": "491872",
    "MEAN_MOTION": "14.3839067",
    "ECCENTRICITY": "0.0001407",
    "INCLINATION": "98.2349",
    "RA_OF_ASC_NODE": "191.6609",
    "ARG_OF_PERICENTER": "84.5829",
    "MEAN_ANOMALY": "339.6003",
    "EPHEMERIS_TYPE": "0",
    "ELEMENT_SET_NO": "999",
    "REV_AT_EPOCH": "12397",
    "BSTAR": "0.000066853",
    "MEAN_MOTION_DOT": "0.00000162",
    "MEAN_MOTION_DDOT": "0",
    "FILE": "3978108",
    "TLE_LINE0": "0 ENVISAT",
    "TLE_LINE1": "1 27386U 02009A   23223.93516773  .00000162  00000-0  66853-4 0  9991",
    "TLE_LINE2": "2 27386  98.2349 191.6609 0001407  84.5829 339.6003 14.38390670123970",
    "OBJECT_ID": "2002-009A",
    "OBJECT_NUMBER": "27386",
    "SEMIMAJOR_AXIS": "7141.958",
    "PERIOD": "100.112",
    "APOGEE": "764.828",
    "PERIGEE": "762.818",
    "DECAYED": "0"
  },
  {
    "COMMENT": "GENERATED VIA SPACETRACK.ORG API",
    "ORIGINATOR": "18 SPCS",
    "NORAD_CAT_ID": "27386",
    "OBJECT_NAME": "ENVISAT",
    "OBJECT_TYPE": "PAYLOAD",
    "CLASSIFICATION_TYPE": "U",
    "INTLDES": "02009A",
    "EPOCH": "2023-08-12 10:36:27",
    "EPOCH_MICROSECONDS": "438336",
    "MEAN_MOTION": "14.38390906",
    "ECCENTRICITY": "0.0001413",
    "INCLINATION": "98.235",
    "RA_OF_ASC_NODE": "192.1471",
    "ARG_OF_PERICENTER": "84.731",
    "MEAN_ANOMALY": "82.3283",
    "EPHEMERIS_TYPE": "0",
    "ELEMENT_SET_NO": "999",
    "REV_AT_EPOCH": "12404",
    "BSTAR": "0.000067728",
    "MEAN_MOTION_DOT": "0.00000165",
    "MEAN_MOTION_DDOT": "0",
    "FILE": "3978489",
    "TLE_LINE0": "0 ENVISAT",
    "TLE_LINE1": "1 27386U 02009A   23224.44198424  .00000165  00000-0  67728-4 0  9992",
    "TLE_LINE2": "2 27386  98.2350 192.1471 0001413  84.7310  82.3283 14.38390906124042",
    "OBJECT_ID": "2002-009A",
    "OBJECT_NUMBER": "27386",
    "SEMIMAJOR_AXIS": "7141.957",
    "PERIOD": "100.112",
    "APOGEE": "764.831",
    "PERIGEE": "762.813",
    "DECAYED": "0"
  },
  {
    "COMMENT": "GENERATED VIA SPACETRACK.ORG API",
    "ORIGINATOR": "18 SPCS",
    "NORAD_CAT_ID": "27386",
    "OBJECT_NAME": "ENVISAT",
    "OBJECT_TYPE": "PAYLOAD",
    "CLASSIFICATION_TYPE": "U",
    "INTLDES": "02009A",
    "EPOCH": "2023-08-12 19:57:03",
    "EPOCH_MICROSECONDS": "533760",
    "MEAN_MOTION": "14.38391089",
    "ECCENTRICITY": "0.0001392",
    "INCLINATION": "98.235",
    "RA_OF_ASC_NODE": "192.5207",
    "ARG_OF_PERICENTER": "84.2257",
    "MEAN_ANOMALY": "297.5732",
    "EPHEMERIS_TYPE": "0",
    "ELEMENT_SET_NO": "999",
    "REV_AT_EPOCH": "12410",
    "BSTAR": "0.000068733",
    "MEAN_MOTION_DOT": "0.00000168",
    "MEAN_MOTION_DDOT": "0",
    "FILE": "3978747",
    "TLE_LINE0": "0 ENVISAT",
    "TLE_LINE1": "1 27386U 02009A   23224.83129090  .00000168  00000-0  68733-4 0  9998",
    "TLE_LINE2": "2 27386  98.2350 192.5207 0001392  84.2257 297.5732 14.38391089124103",
    "OBJECT_ID": "2002-009A",
    "OBJECT_NUMBER": "27386",
    "SEMIMAJOR_AXIS": "7141.956",
    "PERIOD": "100.112",
    "APOGEE": "764.815",
    "PERIGEE": "762.827",
    "DECAYED": "0"
  },
  {
    "COMMENT": "GENERATED VIA SPACETRACK.ORG API",
    "ORIGINATOR": "18 SPCS",
    "NORAD_CAT_ID": "27386",
    "OBJECT_NAME": "ENVISAT",
    "OBJECT_TYPE": "PAYLOAD",
    "CLASSIFICATION_TYPE": "U",
    "INTLDES": "02009A",
    "EPOCH": "2023-08-12 21:38:45",
    "EPOCH_MICROSECONDS": "551904",
    "MEAN_MOTION": "14.38391118",
    "ECCENTRICITY": "0.0001393",
    "INCLINATION": "98.235",
    "RA_OF_ASC_NODE": "192.5885",
    "ARG_OF_PERICENTER": "84.2382",
    "MEAN_ANOMALY": "303.0602",
    "EPHEMERIS_TYPE": "0",
    "ELEMENT_SET_NO": "999",
    "REV_AT_EPOCH": "12411",
    "BSTAR": "0.000068384",
    "MEAN_MOTION_DOT": "0.00000167",
    "MEAN_MOTION_DDOT": "0",
    "FILE": "3979075",
    "TLE_LINE0": "0 ENVISAT",
    "TLE_LINE1": "1 27386U 02009A   23224.90191611  .00000167  00000-0  68384-4 0  9995",
    "TLE_LINE2": "2 27386  98.2350 192.5885 0001393  84.2382 303.0602 14.38391118124118",
    "OBJECT_ID": "2002-009A",
    "OBJECT_NUMBER": "27386",
    "SEMIMAJOR_AXIS": "7141.956",
    "PERIOD": "100.112",
    "APOGEE": "764.816",
    "PERIGEE": "762.826",
    "DECAYED": "0"
  },
  {
    "COMMENT": "GENERATED VIA SPACETRACK.ORG API",
    "ORIGINATOR": "18 SPCS",
    "NORAD_CAT_ID": "27386",
    "OBJECT_NAME": "ENVISAT",
    "OBJECT_TYPE": "PAYLOAD",
    "CLASSIFICATION_TYPE": "U",
    "INTLDES": "02009A",
    "EPOCH": "2023-08-13 13:04:09",
    "EPOCH_MICROSECONDS": "393024",
    "MEAN_MOTION": "14.38391321",
    "ECCENTRICITY": "0.0001386",
    "INCLINATION": "98.2352",
    "RA_OF_ASC_NODE": "193.205",
    "ARG_OF_PERICENTER": "84.023",
    "MEAN_ANOMALY": "29.0505",
    "EPHEMERIS_TYPE": "0",
    "ELEMENT_SET_NO": "999",
    "REV_AT_EPOCH": "12420",
    "BSTAR": "0.000065034",
    "MEAN_MOTION_DOT": "0.00000157",
    "MEAN_MOTION_DDOT": "0",
    "FILE": "3979189",
    "TLE_LINE0": "0 ENVISAT",
    "TLE_LINE1": "1 27386U 02009A   23225.54455316  .00000157  00000-0  65034-4 0  9999",
    "TLE_LINE2": "2 27386  98.2352 193.2050 0001386  84.0230  29.0505 14.38391321124207",
    "OBJECT_ID": "2002-009A",
    "OBJECT_NUMBER": "27386",
    "SEMIMAJOR_AXIS": "7141.955",
    "PERIOD": "100.112",
    "APOGEE": "764.810",
    "PERIGEE": "762.831",
    "DECAYED": "0"
  },
  {
    "COMMENT": "GENERATED VIA SPACETRACK.ORG API",
    "ORIGINATOR": "18 SPCS",
    "NORAD_CAT_ID": "27386",
    "OBJECT_NAME": "ENVISAT",
    "OBJECT_TYPE": "PAYLOAD",
    "CLASSIFICATION_TYPE": "U",
    "INTLDES": "02009A",
    "EPOCH": "2023-08-13 19:30:17",
    "EPOCH_MICROSECONDS": "95104",
    "MEAN_MOTION": "14.38391405",
    "ECCENTRICITY": "0.0001377",
    "INCLINATION": "98.2352",
    "RA_OF_ASC_NODE": "193.4624",
    "ARG_OF_PERICENTER": "84.0707",
    "MEAN_ANOMALY": "336.7053",
    "EPHEMERIS_TYPE": "0",
    "ELEMENT_SET_NO": "999",
    "REV_AT_EPOCH": "12424",
    "BSTAR": "0.000064036",
    "MEAN_MOTION_DOT": "0.00000154",
    "MEAN_MOTION_DDOT": "0",
    "FILE": "3979528",
    "TLE_LINE0": "0 ENVISAT",
    "TLE_LINE1": "1 27386U 02009A   23225.81269786  .00000154  00000-0  64036-4 0  9991",
    "TLE_LINE2": "2 27386  98.2352 193.4624 0001377  84.0707 336.7053 14.38391405124248",
    "OBJECT_ID": "2002-009A",
    "OBJECT_NUMBER": "27386",
    "SEMIMAJOR_AXIS": "7141.955",
    "PERIOD": "100.112",
    "APOGEE": "764.804",
    "PERIGEE": "762.837",
    "DECAYED": "0"
  },
  {
    "COMMENT": "GENERATED VIA SPACETRACK.ORG API",
    "ORIGINATOR": "18 SPCS",
    "NORAD_CAT_ID": "27386",
    "OBJECT_NAME": "ENVISAT",
    "OBJECT_TYPE": "PAYLOAD",
    "CLASSIFICATION_TYPE": "U",
    "INTLDES": "02009A",
    "EPOCH": "2023-08-14 03:37:08",
    "EPOCH_MICROSECONDS": "681952",
    "MEAN_MOTION": "14.38391586",
    "ECCENTRICITY": "0.0001376",
    "INCLINATION": "98.2353",
    "RA_OF_ASC_NODE": "193.7868",
    "ARG_OF_PERICENTER": "83.9721",
    "MEAN_ANOMALY": "286.5244",
    "EPHEMERIS_TYPE": "0",
    "ELEMENT_SET_NO": "999",
    "REV_AT_EPOCH": "12429",
    "BSTAR": "0.000065798",
    "MEAN_MOTION_DOT": "0.00000159",
    "MEAN_MOTION_DDOT": "0",
    "FILE": "3979818",
    "TLE_LINE0": "0 ENVISAT",
    "TLE_LINE1": "1 27386U 02009A   23226.15079493  .00000159  00000-0  65798-4 0  9994",
    "TLE_LINE2": "2 27386  98.2353 193.7868 0001376  83.9721 286.5244 14.38391586124294",
    "OBJECT_ID": "2002-009A",
    "OBJECT_NUMBER": "27386",
    "SEMIMAJOR_AXIS": "7141.955",
    "PERIOD": "100.112",
    "APOGEE": "764.802",
    "PERIGEE": "762.837",
    "DECAYED": "0"
  }
]